start=new Date('2022-10-04T00:00:00.000Z').valueOf();
sats=[{"CLASSIFICATION_TYPE":"U","BSTAR":"0.00011811000000","ARG_OF_PERICENTER":"66.3851","COUNTRY_CODE":"US","LAUNCH_DATE":"2020-09-03","ECCENTRICITY":"0.00018060","MEAN_MOTION_DOT":"0.00001479","MEAN_ANOMALY":"293.7328","MEAN_MOTION_DDOT":"0.0000000000000","INCLINATION":"53.0537","CENTER_NAME":"EARTH","REF_FRAME":"TEME","REV_AT_EPOCH":"11539","ELEMENT_SET_NO":"999","FILE":"3590320","APOAPSIS":"548.433","RA_OF_ASC_NODE":"243.1906","MEAN_MOTION":"15.06410322","OBJECT_NAME":"STARLINK-1752","GP_ID":"214084924","RCS_SIZE":"LARGE","PERIAPSIS":"545.931","SEMIMAJOR_AXIS":"6925.317","TIME_SYSTEM":"UTC","OBJECT_ID":"2020-062P","DECAY_DATE":null,"NORAD_CAT_ID":"46338","EPOCH":"2022-10-03T07:52:19.845408","TLE_LINE2":"2 46338  53.0537 243.1906 0001806  66.3851 293.7328 15.06410322115395","TLE_LINE1":"1 46338U 20062P   22276.32800747  .00001479  00000-0  11811-3 0  9990","PERIOD":"95.591","SITE":"AFETR","EPHEMERIS_TYPE":"0","MEAN_ELEMENT_THEORY":"SGP4","OBJECT_TYPE":"PAYLOAD"},{"MEAN_MOTION_DOT":"0.00005075","LAUNCH_DATE":"2020-09-03","ECCENTRICITY":"0.00015800","COUNTRY_CODE":"US","CLASSIFICATION_TYPE":"U","ARG_OF_PERICENTER":"69.5118","BSTAR":"0.00035918000000","INCLINATION":"53.0540","CENTER_NAME":"EARTH","MEAN_MOTION_DDOT":"0.0000000000000","MEAN_ANOMALY":"290.6040","OBJECT_NAME":"STARLINK-1759","GP_ID":"214115433","RCS_SIZE":"LARGE","MEAN_MOTION":"15.06416007","TIME_SYSTEM":"UTC","PERIAPSIS":"546.070","SEMIMAJOR_AXIS":"6925.299","REF_FRAME":"TEME","FILE":"3590585","RA_OF_ASC_NODE":"241.8204","APOAPSIS":"548.259","REV_AT_EPOCH":"11543","ELEMENT_SET_NO":"999","PERIOD":"95.591","SITE":"AFETR","TLE_LINE1":"1 46340U 20062R   22276.63393696  .00005075  00000-0  35918-3 0  9997","OBJECT_TYPE":"PAYLOAD","MEAN_ELEMENT_THEORY":"SGP4","EPHEMERIS_TYPE":"0","DECAY_DATE":null,"OBJECT_ID":"2020-062R","TLE_LINE2":"2 46340  53.0540 241.8204 0001580  69.5118 290.6040 15.06416007115436","NORAD_CAT_ID":"46340","EPOCH":"2022-10-03T15:12:52.153344"},{"CLASSIFICATION_TYPE":"U","ARG_OF_PERICENTER":"77.6171","BSTAR":"0.00057188000000","MEAN_MOTION_DOT":"0.00008250","LAUNCH_DATE":"2020-09-03","ECCENTRICITY":"0.00013620","COUNTRY_CODE":"US","MEAN_MOTION_DDOT":"0.0000000000000","MEAN_ANOMALY":"282.4970","INCLINATION":"53.0511","CENTER_NAME":"EARTH","REF_FRAME":"TEME","FILE":"3590585","RA_OF_ASC_NODE":"220.8983","APOAPSIS":"548.116","REV_AT_EPOCH":"11576","ELEMENT_SET_NO":"999","GP_ID":"214116683","OBJECT_NAME":"STARLINK-1760","RCS_SIZE":"LARGE","MEAN_MOTION":"15.06413253","TIME_SYSTEM":"UTC","PERIAPSIS":"546.230","SEMIMAJOR_AXIS":"6925.308","DECAY_DATE":null,"OBJECT_ID":"2020-062S","TLE_LINE2":"2 46341  53.0511 220.8983 0001362  77.6171 282.4970 15.06413253115760","NORAD_CAT_ID":"46341","EPOCH":"2022-10-03T20:07:26.673024","PERIOD":"95.591","SITE":"AFETR","TLE_LINE1":"1 46341U 20062S   22276.83850316  .00008250  00000-0  57188-3 0  9998","OBJECT_TYPE":"PAYLOAD","MEAN_ELEMENT_THEORY":"SGP4","EPHEMERIS_TYPE":"0"},{"MEAN_MOTION_DDOT":"0.0000000000000","MEAN_ANOMALY":"300.9047","CENTER_NAME":"EARTH","INCLINATION":"53.0548","ARG_OF_PERICENTER":"59.2089","BSTAR":"-0.00006668900000","CLASSIFICATION_TYPE":"U","MEAN_MOTION_DOT":"-0.00001274","LAUNCH_DATE":"2020-09-03","ECCENTRICITY":"0.00014880","COUNTRY_CODE":"US","TLE_LINE2":"2 46342  53.0548 240.6818 0001488  59.2089 300.9047 15.06380533115485","EPOCH":"2022-10-03T21:13:49.822752","NORAD_CAT_ID":"46342","DECAY_DATE":null,"OBJECT_ID":"2020-062T","MEAN_ELEMENT_THEORY":"SGP4","OBJECT_TYPE":"PAYLOAD","EPHEMERIS_TYPE":"0","SITE":"AFETR","PERIOD":"95.593","TLE_LINE1":"1 46342U 20062T   22276.88460443 -.00001274  00000-0 -66689-4 0  9990","RA_OF_ASC_NODE":"240.6818","APOAPSIS":"548.304","FILE":"3590585","ELEMENT_SET_NO":"999","REV_AT_EPOCH":"11548","REF_FRAME":"TEME","TIME_SYSTEM":"UTC","SEMIMAJOR_AXIS":"6925.408","PERIAPSIS":"546.243","RCS_SIZE":"LARGE","OBJECT_NAME":"STARLINK-1762","GP_ID":"214116926","MEAN_MOTION":"15.06380533"},{"MEAN_ANOMALY":"284.3443","MEAN_MOTION_DDOT":"0.0000000000000","CENTER_NAME":"EARTH","INCLINATION":"53.0531","BSTAR":"-0.00002092800000","ARG_OF_PERICENTER":"75.7704","CLASSIFICATION_TYPE":"U","COUNTRY_CODE":"US","LAUNCH_DATE":"2020-09-03","MEAN_MOTION_DOT":"-0.00000593","ECCENTRICITY":"0.00014310","NORAD_CAT_ID":"46343","EPOCH":"2022-10-03T19:30:17.801856","TLE_LINE2":"2 46343  53.0531 221.0056 0001431  75.7704 284.3443 15.06395637115756","OBJECT_ID":"2020-062U","DECAY_DATE":null,"EPHEMERIS_TYPE":"0","MEAN_ELEMENT_THEORY":"SGP4","OBJECT_TYPE":"PAYLOAD","TLE_LINE1":"1 46343U 20062U   22276.81270604 -.00000593  00000-0 -20928-4 0  9991","SITE":"AFETR","PERIOD":"95.592","ELEMENT_SET_NO":"999","REV_AT_EPOCH":"11575","RA_OF_ASC_NODE":"221.0056","APOAPSIS":"548.218","FILE":"3590585","REF_FRAME":"TEME","SEMIMAJOR_AXIS":"6925.362","PERIAPSIS":"546.236","TIME_SYSTEM":"UTC","MEAN_MOTION":"15.06395637","RCS_SIZE":"LARGE","GP_ID":"214115683","OBJECT_NAME":"STARLINK-1764"},{"CENTER_NAME":"EARTH","INCLINATION":"53.0533","MEAN_MOTION_DDOT":"0.0000000000000","MEAN_ANOMALY":"264.5897","LAUNCH_DATE":"2020-09-03","ECCENTRICITY":"0.00016520","MEAN_MOTION_DOT":"0.00015199","COUNTRY_CODE":"US","ARG_OF_PERICENTER":"95.5280","BSTAR":"0.00103630000000","CLASSIFICATION_TYPE":"U","OBJECT_TYPE":"PAYLOAD","MEAN_ELEMENT_THEORY":"SGP4","EPHEMERIS_TYPE":"0","PERIOD":"95.591","SITE":"AFETR","TLE_LINE1":"1 46344U 20062V   22276.56574739  .00015199  00000-0  10363-2 0  9996","TLE_LINE2":"2 46344  53.0533 222.1235 0001652  95.5280 264.5897 15.06425816115873","NORAD_CAT_ID":"46344","EPOCH":"2022-10-03T13:34:40.574496","DECAY_DATE":null,"OBJECT_ID":"2020-062V","TIME_SYSTEM":"UTC","PERIAPSIS":"545.990","SEMIMAJOR_AXIS":"6925.269","OBJECT_NAME":"STARLINK-1765","GP_ID":"214092293","RCS_SIZE":"LARGE","MEAN_MOTION":"15.06425816","FILE":"3590402","RA_OF_ASC_NODE":"222.1235","APOAPSIS":"548.278","REV_AT_EPOCH":"11587","ELEMENT_SET_NO":"999","REF_FRAME":"TEME"},{"REF_FRAME":"TEME","REV_AT_EPOCH":"11544","ELEMENT_SET_NO":"999","FILE":"3590585","RA_OF_ASC_NODE":"241.7959","APOAPSIS":"548.245","MEAN_MOTION":"15.06423761","GP_ID":"214116185","OBJECT_NAME":"STARLINK-1767","RCS_SIZE":"LARGE","PERIAPSIS":"546.037","SEMIMAJOR_AXIS":"6925.276","TIME_SYSTEM":"UTC","OBJECT_ID":"2020-062W","DECAY_DATE":null,"EPOCH":"2022-10-03T15:11:30.665184","NORAD_CAT_ID":"46345","TLE_LINE2":"2 46345  53.0536 241.7959 0001594  71.0604 289.0558 15.06423761115447","TLE_LINE1":"1 46345U 20062W   22276.63299381  .00014942  00000-0  10192-2 0  9997","PERIOD":"95.591","SITE":"AFETR","EPHEMERIS_TYPE":"0","MEAN_ELEMENT_THEORY":"SGP4","OBJECT_TYPE":"PAYLOAD","CLASSIFICATION_TYPE":"U","BSTAR":"0.00101920000000","ARG_OF_PERICENTER":"71.0604","COUNTRY_CODE":"US","MEAN_MOTION_DOT":"0.00014942","LAUNCH_DATE":"2020-09-03","ECCENTRICITY":"0.00015940","MEAN_ANOMALY":"289.0558","MEAN_MOTION_DDOT":"0.0000000000000","INCLINATION":"53.0536","CENTER_NAME":"EARTH"},{"COUNTRY_CODE":"US","LAUNCH_DATE":"2020-09-03","MEAN_MOTION_DOT":"0.00019825","ECCENTRICITY":"0.00017690","CLASSIFICATION_TYPE":"U","BSTAR":"0.00059825000000","ARG_OF_PERICENTER":"47.4096","INCLINATION":"53.0544","CENTER_NAME":"EARTH","MEAN_ANOMALY":"312.7054","MEAN_MOTION_DDOT":"0.0000000000000","MEAN_MOTION":"15.34296035","RCS_SIZE":"LARGE","OBJECT_NAME":"STARLINK-1546","GP_ID":"214116428","SEMIMAJOR_AXIS":"6841.149","PERIAPSIS":"461.804","TIME_SYSTEM":"UTC","REF_FRAME":"TEME","ELEMENT_SET_NO":"999","REV_AT_EPOCH":"11798","APOAPSIS":"464.224","RA_OF_ASC_NODE":"63.2916","FILE":"3590585","TLE_LINE1":"1 46346U 20062X   22276.80458750  .00019825  00000-0  59825-3 0  9996","SITE":"AFETR","PERIOD":"93.854","EPHEMERIS_TYPE":"0","OBJECT_TYPE":"PAYLOAD","MEAN_ELEMENT_THEORY":"SGP4","OBJECT_ID":"2020-062X","DECAY_DATE":null,"EPOCH":"2022-10-03T19:18:36.360000","NORAD_CAT_ID":"46346","TLE_LINE2":"2 46346  53.0544  63.2916 0001769  47.4096 312.7054 15.34296035117982"},{"MEAN_MOTION_DDOT":"0.0000000000000","MEAN_ANOMALY":"287.7022","CENTER_NAME":"EARTH","INCLINATION":"53.0563","ARG_OF_PERICENTER":"72.4114","BSTAR":"0.00004648100000","CLASSIFICATION_TYPE":"U","MEAN_MOTION_DOT":"0.00000411","LAUNCH_DATE":"2020-09-03","ECCENTRICITY":"0.00013430","COUNTRY_CODE":"US","TLE_LINE2":"2 46347  53.0563 196.1034 0001343  72.4114 287.7022 15.06409291116083","EPOCH":"2022-10-03T18:59:06.073728","NORAD_CAT_ID":"46347","DECAY_DATE":null,"OBJECT_ID":"2020-062Y","OBJECT_TYPE":"PAYLOAD","MEAN_ELEMENT_THEORY":"SGP4","EPHEMERIS_TYPE":"0","SITE":"AFETR","PERIOD":"95.592","TLE_LINE1":"1 46347U 20062Y   22276.79104252  .00000411  00000-0  46481-4 0  9996","APOAPSIS":"548.115","RA_OF_ASC_NODE":"196.1034","FILE":"3590585","ELEMENT_SET_NO":"999","REV_AT_EPOCH":"11608","REF_FRAME":"TEME","TIME_SYSTEM":"UTC","SEMIMAJOR_AXIS":"6925.320","PERIAPSIS":"546.255","RCS_SIZE":"LARGE","GP_ID":"214115184","OBJECT_NAME":"STARLINK-1547","MEAN_MOTION":"15.06409291"},{"MEAN_MOTION_DDOT":"0.0000000000000","MEAN_ANOMALY":"287.5473","INCLINATION":"53.0531","CENTER_NAME":"EARTH","CLASSIFICATION_TYPE":"U","ARG_OF_PERICENTER":"72.5670","BSTAR":"0.00056355000000","ECCENTRICITY":"0.00014080","LAUNCH_DATE":"2020-09-03","MEAN_MOTION_DOT":"0.00008125","COUNTRY_CODE":"US","DECAY_DATE":null,"OBJECT_ID":"2020-062Z","TLE_LINE2":"2 46348  53.0531 221.1959 0001408  72.5670 287.5473 15.06410491115748","NORAD_CAT_ID":"46348","EPOCH":"2022-10-03T18:26:35.547072","PERIOD":"95.591","SITE":"AFETR","TLE_LINE1":"1 46348U 20062Z   22276.76846698  .00008125  00000-0  56355-3 0  9991","OBJECT_TYPE":"PAYLOAD","MEAN_ELEMENT_THEORY":"SGP4","EPHEMERIS_TYPE":"0","REF_FRAME":"TEME","FILE":"3590585","APOAPSIS":"548.156","RA_OF_ASC_NODE":"221.1959","REV_AT_EPOCH":"11574","ELEMENT_SET_NO":"999","OBJECT_NAME":"STARLINK-1553","GP_ID":"214115434","RCS_SIZE":"LARGE","MEAN_MOTION":"15.06410491","TIME_SYSTEM":"UTC","PERIAPSIS":"546.206","SEMIMAJOR_AXIS":"6925.316"}];
